[{"OBJECT_NAME":"STARLINK-31959","OBJECT_ID":"2024-106D","EPOCH":"2026-03-09T09:51:39.794400","MEAN_MOTION":15.27564146,"ECCENTRICITY":5.563e-5,"INCLINATION":43.0019,"RA_OF_ASC_NODE":330.2606,"ARG_OF_PERICENTER":12.705,"MEAN_ANOMALY":347.3816,"EPHEMERIS_TYPE":0,"CLASSIFICATION_TYPE":"U","NORAD_CAT_ID":59925,"ELEMENT_SET_NO":999,"REV_AT_EPOCH":10052,"BSTAR":-4.0088203e-5,"MEAN_MOTION_DOT":-1.364e-5,"MEAN_MOTION_DDOT":0},{"OBJECT_NAME":"YAOGAN-43 01F","OBJECT_ID":"2024-148F","EPOCH":"2026-03-10T00:23:08.877408","MEAN_MOTION":15.29824616,"ECCENTRICITY":0.00057048,"INCLINATION":34.9925,"RA_OF_ASC_NODE":59.8891,"ARG_OF_PERICENTER":18.4862,"MEAN_ANOMALY":341.6062,"EPHEMERIS_TYPE":0,"CLASSIFICATION_TYPE":"U","NORAD_CAT_ID":60463,"ELEMENT_SET_NO":999,"REV_AT_EPOCH":8707,"BSTAR":0.00058388219,"MEAN_MOTION_DOT":0.00017308,"MEAN_MOTION_DDOT":0}]
